[{"OBJECT_NAME":"YAOGAN-31 02B","OBJECT_ID":"2021-007B","EPOCH":"2026-03-09T23:16:09.070752","MEAN_MOTION":13.45439674,"ECCENTRICITY":0.01677916,"INCLINATION":63.4048,"RA_OF_ASC_NODE":37.1021,"ARG_OF_PERICENTER":0.2333,"MEAN_ANOMALY":359.8743,"EPHEMERIS_TYPE":0,"CLASSIFICATION_TYPE":"U","NORAD_CAT_ID":47533,"ELEMENT_SET_NO":999,"REV_AT_EPOCH":25088,"BSTAR":0.0002025625,"MEAN_MOTION_DOT":4.1e-7,"MEAN_MOTION_DDOT":0},{"OBJECT_NAME":"THOR ABLESTAR DEB","OBJECT_ID":"1963-038Q","EPOCH":"2026-03-07T12:51:46.130976","MEAN_MOTION":13.45413641,"ECCENTRICITY":0.00389835,"INCLINATION":89.9749,"RA_OF_ASC_NODE":333.4206,"ARG_OF_PERICENTER":278.0118,"MEAN_ANOMALY":202.8795,"EPHEMERIS_TYPE":0,"CLASSIFICATION_TYPE":"U","NORAD_CAT_ID":38521,"ELEMENT_SET_NO":999,"REV_AT_EPOCH":62183,"BSTAR":0.00019962947,"MEAN_MOTION_DOT":1.27e-6,"MEAN_MOTION_DDOT":0}]
